OBJECT_NAME,OBJECT_ID,EPOCH,MEAN_MOTION,ECCENTRICITY,INCLINATION,RA_OF_ASC_NODE,ARG_OF_PERICENTER,MEAN_ANOMALY,EPHEMERIS_TYPE,CLASSIFICATION_TYPE,NORAD_CAT_ID,ELEMENT_SET_NO,REV_AT_EPOCH,BSTAR,MEAN_MOTION_DOT,MEAN_MOTION_DDOT
SL-16 R/B,1996-051B,2026-07-16T03:18:53.409024,14.12456869,.0017863,70.7646,263.3816,296.8695,63.0598,0,U,24298,999,53978,.11131E-3,.157E-5,0
ORBVIEW 2 (SEASTAR),1997-037A,2026-07-16T02:01:31.905120,14.35567014,.0003072,98.8714,4.9081,59.1766,300.9720,0,U,24883,999,52689,.46439E-4,.87E-6,0
SL-16 R/B,1998-043G,2026-07-15T20:22:18.200064,14.26072774,.0009993,98.8379,151.2572,9.6080,350.5289,0,U,25400,999,45725,.17663715E-4,-.3E-7,0
SL-16 R/B,1998-045B,2026-07-16T04:41:03.907968,14.16205112,.0008131,71.0108,271.3256,205.1437,154.9291,0,U,25407,999,44529,-.54425E-4,-.156E-5,0
ISS (ZARYA),1998-067A,2026-07-15T18:23:37.536288,15.49019038,.00067189,51.6311,158.6576,300.0875,59.9447,0,U,25544,999,57618,.82095193E-4,.4078E-4,0
CZ-4B R/B,1999-025C,2026-07-16T02:59:53.234880,14.18287818,.0036586,98.6471,238.2330,337.0233,42.5941,0,U,25732,999,40637,.22978E-4,.4E-7,0
OKEAN-O,1999-039A,2026-07-16T03:20:48.415200,14.80497993,.000087,97.9301,255.6027,89.6470,270.4842,0,U,25860,999,45339,.40429E-4,.257E-5,0
SL-16 R/B,1999-039B,2026-07-16T03:13:29.701056,14.81871285,.0014379,97.9823,255.9126,195.3328,164.7451,0,U,25861,999,45588,.34839E-4,.222E-5,0
DELTA 2 R/B,1999-041E,2026-07-16T04:41:48.696000,14.12087336,.0501403,51.7611,147.8987,7.7110,353.1177,0,U,25876,999,38118,.22098E-3,.1134E-4,0
HELIOS 1B,1999-064A,2026-07-16T03:51:05.758848,14.88076280,.0001874,98.1583,103.1360,53.1847,306.9540,0,U,25977,999,70436,.73735E-4,.619E-5,0
TERRA,1999-068A,2026-07-16T04:43:16.506048,14.61124131,.0003454,97.9441,245.5905,120.6874,331.5676,0,U,25994,999,41384,.43981E-4,.172E-5,0
SL-16 R/B,2000-006B,2026-07-16T02:27:42.175872,14.15837952,.0017216,71.0002,187.8250,338.7264,21.3141,0,U,26070,999,36673,-.23781E-4,-.95E-6,0
TITAN 4B R/B,2000-047B,2026-07-16T03:12:45.962784,15.10335460,.0045807,67.9873,39.0846,257.8329,101.7688,0,U,26474,999,41230,.78411E-4,.1177E-4,0
ENVISAT,2002-009A,2026-07-15T21:31:31.960416,14.39070823,.00013246,98.3846,147.5774,83.1983,345.7951,0,U,27386,999,27761,.19312938E-4,.17E-6,0
IDEFIX & ARIANE 42P R/B,2002-021B,2026-07-15T19:05:31.081632,14.31093901,.0011926,98.5942,133.9694,164.7365,195.4180,0,U,27422,999,26234,.49884217E-4,.88E-6,0
AQUA,2002-022A,2026-07-14T12:07:11.762400,14.62196472,.0000927,98.4295,165.3370,111.8770,0.7592,0,U,27424,999,28726,.80863616E-4,.358E-5,0
CZ-4B R/B,2002-024C,2026-07-16T04:06:34.316928,14.14568339,.005042,98.8685,249.8008,19.2374,48.5191,0,U,27432,999,24740,.23215E-4,.1E-7,0
MIDORI II (ADEOS-II),2002-056A,2026-07-15T21:48:20.233728,14.29363216,.0001445,98.7895,156.4153,40.1174,320.0114,0,U,27597,999,22861,.52232E-4,.88E-6,0
H-2A R/B,2002-056E,2026-07-16T04:07:13.137312,14.33834172,.0070936,98.3329,152.7922,138.0427,233.0431,0,U,27601,999,23252,.53079E-4,.111E-5,0
CZ-4B R/B,2003-049C,2026-07-15T21:44:08.289600,14.55116335,.0047691,98.6910,196.8971,199.0637,160.8775,0,U,28059,999,20524,.40044E-4,.124E-5,0
CZ-2C R/B,2004-012C,2026-07-16T04:36:00.250848,15.85417619,.0011157,97.7046,276.3698,187.7372,172.3727,0,U,28222,999,22448,.41106E-3,.99037E-3,0
SL-16 R/B,2004-021B,2026-07-15T19:11:26.685024,14.14616500,.00062869,71.0029,323.6400,224.6358,135.4259,0,U,28353,999,14095,.2738042E-5,-.42E-6,0
CZ-4B R/B,2004-035C,2026-07-16T02:09:33.871968,15.30998816,.0029309,97.3353,229.8433,229.3035,130.5659,0,U,28415,999,19954,.13309E-3,.3958E-4,0
CZ-2C R/B,2004-046B,2026-07-16T03:35:45.935808,14.27033343,.0140183,98.1915,104.1165,134.5884,226.6840,0,U,28480,999,12682,.37105E-4,.6E-6,0
ARIANE 5 R/B,2004-049H,2026-07-16T02:16:22.298592,14.85479437,.0082611,98.2741,10.4690,295.3328,63.9347,0,U,28499,999,16485,.29666E-4,.205E-5,0
CZ-2D R/B,2005-024B,2026-07-16T00:09:00.025056,15.72821571,.0002536,97.3469,217.9427,190.6188,169.5022,0,U,28738,999,15986,.3186E-3,.43037E-3,0
ALOS (DAICHI),2006-002A,2026-07-15T21:09:44.868384,14.70102533,.00008284,98.1338,152.3631,101.2889,258.8410,0,U,28931,999,9231,.84052529E-4,.455E-5,0
H-2A R/B,2006-002B,2026-07-16T01:16:47.303328,15.18453795,.0050849,98.2594,355.5062,163.1193,197.1745,0,U,28932,999,11390,.23929E-3,.5014E-4,0
RESURS-DK 1,2006-021A,2026-07-16T04:27:33.840576,15.13320706,.0007162,69.9306,264.4811,269.9586,90.0759,0,U,29228,999,10696,.53925E-4,.854E-5,0
CZ-4B R/B,2006-046C,2026-07-16T03:03:05.016096,15.17985467,.0032696,97.5435,241.6456,178.9006,181.2305,0,U,29507,999,7952,.11212E-3,.2238E-4,0
CZ-2C R/B,2007-010B,2026-07-16T05:24:48.722688,14.20281936,.0057764,98.4120,304.1594,280.7099,78.7578,0,U,31114,999,99796,.33132E-4,.3E-6,0
